KUIPER-00079            
1 64826U 25151L   26012.77776778  .00002688  00000+0  38108-3 0  9993
2 64826  51.8975 187.8089 0002534  94.0687 266.0565 14.79974682 28223
KUIPER-00080            
1 64827U 25151M   26012.74409806  .00008864  00000+0  11903-2 0  9991
2 64827  51.8991 187.9646 0006255  79.9417 280.2250 14.79923792 27021
KUIPER-00082            
1 64828U 25151N   26012.72371381 -.00005385  00000+0 -67861-3 0  9998
2 64828  51.9012 175.5735 0001681 132.6470 227.4634 14.79884331 27195
KUIPER-00083            
1 64829U 25151P   26012.85078363  .00009598  00000+0  12863-2 0  9996
2 64829  51.8993 182.5056 0003426 105.7814 254.3526 14.79928439 28298
KUIPER-00084            
1 64830U 25151Q   26012.77229515  .00002205  00000+0  31800-3 0  9997
2 64830  51.8992 192.8365 0009066  38.7697 321.3914 14.79976081 26959
KUIPER-00085            
1 64831U 25151R   26012.75745558  .00002696  00000+0  38242-3 0  9997
2 64831  51.9018 175.4434 0007963  80.9565 279.2298 14.79946893 27192
KUIPER-00086            
1 64832U 25151S   26012.67921507 -.00005038  00000+0 -63176-3 0  9998
2 64832  51.8996 185.7717 0011245  57.5527 302.6521 14.79901134 27044
KUIPER-00087            
1 64833U 25151T   26012.83306553 -.00001446  00000+0 -16062-3 0  9996
2 64833  51.9014 167.5804 0000646  99.2917 260.8118 14.79947172 27309
