<?xml version="1.0" encoding="UTF-8"?>
<ndm xmlns:xsi="http://www.w3.org/2001/XMLSchema-instance" xsi:noNamespaceSchemaLocation="https://sanaregistry.org/r/ndmxml_unqualified/ndmxml-2.0.0-master-2.0.xsd">
<omm id="CCSDS_OMM_VERS" version="2.0">
<header><CREATION_DATE/><ORIGINATOR/></header><body><segment><metadata><OBJECT_NAME>KUIPER-00079</OBJECT_NAME><OBJECT_ID>2025-151L</OBJECT_ID><CENTER_NAME>EARTH</CENTER_NAME><REF_FRAME>TEME</REF_FRAME><TIME_SYSTEM>UTC</TIME_SYSTEM><MEAN_ELEMENT_THEORY>SGP4</MEAN_ELEMENT_THEORY></metadata><data><meanElements><EPOCH>2026-01-12T18:39:59.136192</EPOCH><MEAN_MOTION>14.79974682</MEAN_MOTION><ECCENTRICITY>.0002534</ECCENTRICITY><INCLINATION>51.8975</INCLINATION><RA_OF_ASC_NODE>187.8089</RA_OF_ASC_NODE><ARG_OF_PERICENTER>94.0687</ARG_OF_PERICENTER><MEAN_ANOMALY>266.0565</MEAN_ANOMALY></meanElements><tleParameters><EPHEMERIS_TYPE>0</EPHEMERIS_TYPE><CLASSIFICATION_TYPE>U</CLASSIFICATION_TYPE><NORAD_CAT_ID>64826</NORAD_CAT_ID><ELEMENT_SET_NO>999</ELEMENT_SET_NO><REV_AT_EPOCH>2822</REV_AT_EPOCH><BSTAR>.38108E-3</BSTAR><MEAN_MOTION_DOT>.2688E-4</MEAN_MOTION_DOT><MEAN_MOTION_DDOT>0</MEAN_MOTION_DDOT></tleParameters></data></segment></body></omm>
<omm id="CCSDS_OMM_VERS" version="2.0">
<header><CREATION_DATE/><ORIGINATOR/></header><body><segment><metadata><OBJECT_NAME>KUIPER-00080</OBJECT_NAME><OBJECT_ID>2025-151M</OBJECT_ID><CENTER_NAME>EARTH</CENTER_NAME><REF_FRAME>TEME</REF_FRAME><TIME_SYSTEM>UTC</TIME_SYSTEM><MEAN_ELEMENT_THEORY>SGP4</MEAN_ELEMENT_THEORY></metadata><data><meanElements><EPOCH>2026-01-12T17:51:30.072384</EPOCH><MEAN_MOTION>14.79923792</MEAN_MOTION><ECCENTRICITY>.0006255</ECCENTRICITY><INCLINATION>51.8991</INCLINATION><RA_OF_ASC_NODE>187.9646</RA_OF_ASC_NODE><ARG_OF_PERICENTER>79.9417</ARG_OF_PERICENTER><MEAN_ANOMALY>280.2250</MEAN_ANOMALY></meanElements><tleParameters><EPHEMERIS_TYPE>0</EPHEMERIS_TYPE><CLASSIFICATION_TYPE>U</CLASSIFICATION_TYPE><NORAD_CAT_ID>64827</NORAD_CAT_ID><ELEMENT_SET_NO>999</ELEMENT_SET_NO><REV_AT_EPOCH>2702</REV_AT_EPOCH><BSTAR>.11903E-2</BSTAR><MEAN_MOTION_DOT>.8864E-4</MEAN_MOTION_DOT><MEAN_MOTION_DDOT>0</MEAN_MOTION_DDOT></tleParameters></data></segment></body></omm>
<omm id="CCSDS_OMM_VERS" version="2.0">
<header><CREATION_DATE/><ORIGINATOR/></header><body><segment><metadata><OBJECT_NAME>KUIPER-00082</OBJECT_NAME><OBJECT_ID>2025-151N</OBJECT_ID><CENTER_NAME>EARTH</CENTER_NAME><REF_FRAME>TEME</REF_FRAME><TIME_SYSTEM>UTC</TIME_SYSTEM><MEAN_ELEMENT_THEORY>SGP4</MEAN_ELEMENT_THEORY></metadata><data><meanElements><EPOCH>2026-01-12T17:22:08.873184</EPOCH><MEAN_MOTION>14.79884331</MEAN_MOTION><ECCENTRICITY>.0001681</ECCENTRICITY><INCLINATION>51.9012</INCLINATION><RA_OF_ASC_NODE>175.5735</RA_OF_ASC_NODE><ARG_OF_PERICENTER>132.6470</ARG_OF_PERICENTER><MEAN_ANOMALY>227.4634</MEAN_ANOMALY></meanElements><tleParameters><EPHEMERIS_TYPE>0</EPHEMERIS_TYPE><CLASSIFICATION_TYPE>U</CLASSIFICATION_TYPE><NORAD_CAT_ID>64828</NORAD_CAT_ID><ELEMENT_SET_NO>999</ELEMENT_SET_NO><REV_AT_EPOCH>2719</REV_AT_EPOCH><BSTAR>-.67861E-3</BSTAR><MEAN_MOTION_DOT>-.5385E-4</MEAN_MOTION_DOT><MEAN_MOTION_DDOT>0</MEAN_MOTION_DDOT></tleParameters></data></segment></body></omm>
<omm id="CCSDS_OMM_VERS" version="2.0">
<header><CREATION_DATE/><ORIGINATOR/></header><body><segment><metadata><OBJECT_NAME>KUIPER-00083</OBJECT_NAME><OBJECT_ID>2025-151P</OBJECT_ID><CENTER_NAME>EARTH</CENTER_NAME><REF_FRAME>TEME</REF_FRAME><TIME_SYSTEM>UTC</TIME_SYSTEM><MEAN_ELEMENT_THEORY>SGP4</MEAN_ELEMENT_THEORY></metadata><data><meanElements><EPOCH>2026-01-12T20:25:07.705632</EPOCH><MEAN_MOTION>14.79928439</MEAN_MOTION><ECCENTRICITY>.0003426</ECCENTRICITY><INCLINATION>51.8993</INCLINATION><RA_OF_ASC_NODE>182.5056</RA_OF_ASC_NODE><ARG_OF_PERICENTER>105.7814</ARG_OF_PERICENTER><MEAN_ANOMALY>254.3526</MEAN_ANOMALY></meanElements><tleParameters><EPHEMERIS_TYPE>0</EPHEMERIS_TYPE><CLASSIFICATION_TYPE>U</CLASSIFICATION_TYPE><NORAD_CAT_ID>64829</NORAD_CAT_ID><ELEMENT_SET_NO>999</ELEMENT_SET_NO><REV_AT_EPOCH>2829</REV_AT_EPOCH><BSTAR>.12863E-2</BSTAR><MEAN_MOTION_DOT>.9598E-4</MEAN_MOTION_DOT><MEAN_MOTION_DDOT>0</MEAN_MOTION_DDOT></tleParameters></data></segment></body></omm>
<omm id="CCSDS_OMM_VERS" version="2.0">
<header><CREATION_DATE/><ORIGINATOR/></header><body><segment><metadata><OBJECT_NAME>KUIPER-00084</OBJECT_NAME><OBJECT_ID>2025-151Q</OBJECT_ID><CENTER_NAME>EARTH</CENTER_NAME><REF_FRAME>TEME</REF_FRAME><TIME_SYSTEM>UTC</TIME_SYSTEM><MEAN_ELEMENT_THEORY>SGP4</MEAN_ELEMENT_THEORY></metadata><data><meanElements><EPOCH>2026-01-12T18:32:06.300960</EPOCH><MEAN_MOTION>14.79976081</MEAN_MOTION><ECCENTRICITY>.0009066</ECCENTRICITY><INCLINATION>51.8992</INCLINATION><RA_OF_ASC_NODE>192.8365</RA_OF_ASC_NODE><ARG_OF_PERICENTER>38.7697</ARG_OF_PERICENTER><MEAN_ANOMALY>321.3914</MEAN_ANOMALY></meanElements><tleParameters><EPHEMERIS_TYPE>0</EPHEMERIS_TYPE><CLASSIFICATION_TYPE>U</CLASSIFICATION_TYPE><NORAD_CAT_ID>64830</NORAD_CAT_ID><ELEMENT_SET_NO>999</ELEMENT_SET_NO><REV_AT_EPOCH>2695</REV_AT_EPOCH><BSTAR>.318E-3</BSTAR><MEAN_MOTION_DOT>.2205E-4</MEAN_MOTION_DOT><MEAN_MOTION_DDOT>0</MEAN_MOTION_DDOT></tleParameters></data></segment></body></omm>
<omm id="CCSDS_OMM_VERS" version="2.0">
<header><CREATION_DATE/><ORIGINATOR/></header><body><segment><metadata><OBJECT_NAME>KUIPER-00085</OBJECT_NAME><OBJECT_ID>2025-151R</OBJECT_ID><CENTER_NAME>EARTH</CENTER_NAME><REF_FRAME>TEME</REF_FRAME><TIME_SYSTEM>UTC</TIME_SYSTEM><MEAN_ELEMENT_THEORY>SGP4</MEAN_ELEMENT_THEORY></metadata><data><meanElements><EPOCH>2026-01-12T18:10:44.162112</EPOCH><MEAN_MOTION>14.79946893</MEAN_MOTION><ECCENTRICITY>.0007963</ECCENTRICITY><INCLINATION>51.9018</INCLINATION><RA_OF_ASC_NODE>175.4434</RA_OF_ASC_NODE><ARG_OF_PERICENTER>80.9565</ARG_OF_PERICENTER><MEAN_ANOMALY>279.2298</MEAN_ANOMALY></meanElements><tleParameters><EPHEMERIS_TYPE>0</EPHEMERIS_TYPE><CLASSIFICATION_TYPE>U</CLASSIFICATION_TYPE><NORAD_CAT_ID>64831</NORAD_CAT_ID><ELEMENT_SET_NO>999</ELEMENT_SET_NO><REV_AT_EPOCH>2719</REV_AT_EPOCH><BSTAR>.38242E-3</BSTAR><MEAN_MOTION_DOT>.2696E-4</MEAN_MOTION_DOT><MEAN_MOTION_DDOT>0</MEAN_MOTION_DDOT></tleParameters></data></segment></body></omm>
<omm id="CCSDS_OMM_VERS" version="2.0">
<header><CREATION_DATE/><ORIGINATOR/></header><body><segment><metadata><OBJECT_NAME>KUIPER-00086</OBJECT_NAME><OBJECT_ID>2025-151S</OBJECT_ID><CENTER_NAME>EARTH</CENTER_NAME><REF_FRAME>TEME</REF_FRAME><TIME_SYSTEM>UTC</TIME_SYSTEM><MEAN_ELEMENT_THEORY>SGP4</MEAN_ELEMENT_THEORY></metadata><data><meanElements><EPOCH>2026-01-12T16:18:04.182048</EPOCH><MEAN_MOTION>14.79901134</MEAN_MOTION><ECCENTRICITY>.0011245</ECCENTRICITY><INCLINATION>51.8996</INCLINATION><RA_OF_ASC_NODE>185.7717</RA_OF_ASC_NODE><ARG_OF_PERICENTER>57.5527</ARG_OF_PERICENTER><MEAN_ANOMALY>302.6521</MEAN_ANOMALY></meanElements><tleParameters><EPHEMERIS_TYPE>0</EPHEMERIS_TYPE><CLASSIFICATION_TYPE>U</CLASSIFICATION_TYPE><NORAD_CAT_ID>64832</NORAD_CAT_ID><ELEMENT_SET_NO>999</ELEMENT_SET_NO><REV_AT_EPOCH>2704</REV_AT_EPOCH><BSTAR>-.63176E-3</BSTAR><MEAN_MOTION_DOT>-.5038E-4</MEAN_MOTION_DOT><MEAN_MOTION_DDOT>0</MEAN_MOTION_DDOT></tleParameters></data></segment></body></omm>
<omm id="CCSDS_OMM_VERS" version="2.0">
<header><CREATION_DATE/><ORIGINATOR/></header><body><segment><metadata><OBJECT_NAME>KUIPER-00087</OBJECT_NAME><OBJECT_ID>2025-151T</OBJECT_ID><CENTER_NAME>EARTH</CENTER_NAME><REF_FRAME>TEME</REF_FRAME><TIME_SYSTEM>UTC</TIME_SYSTEM><MEAN_ELEMENT_THEORY>SGP4</MEAN_ELEMENT_THEORY></metadata><data><meanElements><EPOCH>2026-01-12T19:59:36.861792</EPOCH><MEAN_MOTION>14.79947172</MEAN_MOTION><ECCENTRICITY>.0000646</ECCENTRICITY><INCLINATION>51.9014</INCLINATION><RA_OF_ASC_NODE>167.5804</RA_OF_ASC_NODE><ARG_OF_PERICENTER>99.2917</ARG_OF_PERICENTER><MEAN_ANOMALY>260.8118</MEAN_ANOMALY></meanElements><tleParameters><EPHEMERIS_TYPE>0</EPHEMERIS_TYPE><CLASSIFICATION_TYPE>U</CLASSIFICATION_TYPE><NORAD_CAT_ID>64833</NORAD_CAT_ID><ELEMENT_SET_NO>999</ELEMENT_SET_NO><REV_AT_EPOCH>2730</REV_AT_EPOCH><BSTAR>-.16062E-3</BSTAR><MEAN_MOTION_DOT>-.1446E-4</MEAN_MOTION_DOT><MEAN_MOTION_DDOT>0</MEAN_MOTION_DDOT></tleParameters></data></segment></body></omm>

</ndm>
